ONEWEB-0207             
1 48242U 21031AJ  25297.36529550 -.00000130  00000+0 -38585-3 0  9994
2 48242  87.9022 336.6654 0001895  89.7829 270.3518 13.14503623217317
ONEWEB-0208             
1 48243U 21031AK  25297.57540926  .00000100  00000+0  23404-3 0  9997
2 48243  87.9022 336.6400 0002035  96.3597 263.7764 13.14504172217353
ONEWEB-0200             
1 48244U 21031AL  25297.61506407 -.00000118  00000+0 -35392-3 0  9999
2 48244  87.9022 336.6218 0001987  95.3880 264.7477 13.14502671217286
ONEWEB-0217             
1 48245U 21031AM  25297.63091983  .00000186  00000+0  46728-3 0  9998
2 48245  87.9029 336.6087 0002174  96.5588 263.5789 13.14503560217231
ONEWEB-0211             
1 48767U 21045A   25297.44669781  .00002823  00000+0  73989-2 0  9996
2 48767  87.8972 306.1714 0002165 100.2262 259.9113 13.16119220213433
ONEWEB-0223             
1 48768U 21045B   25297.49161134  .00000128  00000+0  30506-3 0  9996
2 48768  87.8963 306.2199 0002041 105.4975 254.6381 13.15549612213411
ONEWEB-0230             
1 48769U 21045C   25297.53914999  .00000040  00000+0  72388-4 0  9995
2 48769  87.8959 306.2422 0001690  91.8443 268.2881 13.15548364213681
ONEWEB-0237             
1 48770U 21045D   25297.45200095 -.00000053  00000+0 -17386-3 0  9995
2 48770  87.8964 306.2578 0001862 101.0495 259.0845 13.15548958213398
